[
  {
    "OBJECT_NAME": "STARLINK-5600",
    "OBJECT_ID": "23099AF",
    "EPOCH": "2025-11-10T23:17:02.757984",
    "MEAN_MOTION": 15.02526211,
    "ECCENTRICITY": 0.0001158,
    "INCLINATION": 43.0024,
    "RA_OF_ASC_NODE": 161.4159,
    "ARG_OF_PERICENTER": 266.4729,
    "MEAN_ANOMALY": 93.5981,
    "EPHEMERIS_TYPE": 0,
    "CLASSIFICATION_TYPE": "U",
    "NORAD_CAT_ID": 57357,
    "ELEMENT_SET_NO": 999,
    "REV_AT_EPOCH": 12840,
    "BSTAR": 4.8072e-05,
    "MEAN_MOTION_DOT": 4.46e-06,
    "MEAN_MOTION_DDOT": 0.0,
    "TLE_LINE1": "1 57357U 23099AF  25314.97017081  .00000446  00000+0  48072-4 0  9996",
    "TLE_LINE2": "2 57357  43.0024 161.4159 0001158 266.4729  93.5981 15.02526211128405",
    "COMMENT": "Grouped by shell and plane from TLE"
  },
  {
    "OBJECT_NAME": "STARLINK-6347",
    "OBJECT_ID": "23099AH",
    "EPOCH": "2025-11-10T23:21:49.399488",
    "MEAN_MOTION": 15.02535829,
    "ECCENTRICITY": 0.000116,
    "INCLINATION": 43.0036,
    "RA_OF_ASC_NODE": 161.4399,
    "ARG_OF_PERICENTER": 272.187,
    "MEAN_ANOMALY": 87.8839,
    "EPHEMERIS_TYPE": 0,
    "CLASSIFICATION_TYPE": "U",
    "NORAD_CAT_ID": 57359,
    "ELEMENT_SET_NO": 999,
    "REV_AT_EPOCH": 12840,
    "BSTAR": 3.6575e-05,
    "MEAN_MOTION_DOT": 2.9e-06,
    "MEAN_MOTION_DDOT": 0.0,
    "TLE_LINE1": "1 57359U 23099AH  25314.97348842  .00000290  00000+0  36575-4 0  9992",
    "TLE_LINE2": "2 57359  43.0036 161.4399 0001160 272.1870  87.8839 15.02535829128403",
    "COMMENT": "Grouped by shell and plane from TLE"
  },
  {
    "OBJECT_NAME": "STARLINK-6343",
    "OBJECT_ID": "23099AL",
    "EPOCH": "2025-11-11T00:19:12.071424",
    "MEAN_MOTION": 15.0253535,
    "ECCENTRICITY": 0.0001012,
    "INCLINATION": 43.0025,
    "RA_OF_ASC_NODE": 160.875,
    "ARG_OF_PERICENTER": 247.0608,
    "MEAN_ANOMALY": 113.0127,
    "EPHEMERIS_TYPE": 0,
    "CLASSIFICATION_TYPE": "U",
    "NORAD_CAT_ID": 57362,
    "ELEMENT_SET_NO": 999,
    "REV_AT_EPOCH": 12841,
    "BSTAR": 6.9819e-05,
    "MEAN_MOTION_DOT": 7.4e-06,
    "MEAN_MOTION_DDOT": 0.0,
    "TLE_LINE1": "1 57362U 23099AL  25315.01333416  .00000740  00000+0  69819-4 0  9990",
    "TLE_LINE2": "2 57362  43.0025 160.8750 0001012 247.0608 113.0127 15.02535350128417",
    "COMMENT": "Grouped by shell and plane from TLE"
  },
  {
    "OBJECT_NAME": "STARLINK-5975",
    "OBJECT_ID": "23099AW",
    "EPOCH": "2025-11-10T22:03:30.542400",
    "MEAN_MOTION": 15.02536338,
    "ECCENTRICITY": 0.0001154,
    "INCLINATION": 43.0023,
    "RA_OF_ASC_NODE": 161.014,
    "ARG_OF_PERICENTER": 269.6955,
    "MEAN_ANOMALY": 90.3755,
    "EPHEMERIS_TYPE": 0,
    "CLASSIFICATION_TYPE": "U",
    "NORAD_CAT_ID": 57372,
    "ELEMENT_SET_NO": 999,
    "REV_AT_EPOCH": 12840,
    "BSTAR": 2.4449000000000003e-05,
    "MEAN_MOTION_DOT": 1.27e-06,
    "MEAN_MOTION_DDOT": 0.0,
    "TLE_LINE1": "1 57372U 23099AW  25314.91910350  .00000127  00000+0  24449-4 0  9996",
    "TLE_LINE2": "2 57372  43.0023 161.0140 0001154 269.6955  90.3755 15.02536338128404",
    "COMMENT": "Grouped by shell and plane from TLE"
  },
  {
    "OBJECT_NAME": "STARLINK-6370",
    "OBJECT_ID": "23099AX",
    "EPOCH": "2025-11-10T23:23:25.105632",
    "MEAN_MOTION": 15.02537614,
    "ECCENTRICITY": 0.0001316,
    "INCLINATION": 43.0033,
    "RA_OF_ASC_NODE": 161.4314,
    "ARG_OF_PERICENTER": 263.8938,
    "MEAN_ANOMALY": 96.1755,
    "EPHEMERIS_TYPE": 0,
    "CLASSIFICATION_TYPE": "U",
    "NORAD_CAT_ID": 57373,
    "ELEMENT_SET_NO": 999,
    "REV_AT_EPOCH": 12840,
    "BSTAR": 2.9603000000000004e-05,
    "MEAN_MOTION_DOT": 1.96e-06,
    "MEAN_MOTION_DDOT": 0.0,
    "TLE_LINE1": "1 57373U 23099AX  25314.97459613  .00000196  00000+0  29603-4 0  9996",
    "TLE_LINE2": "2 57373  43.0033 161.4314 0001316 263.8938  96.1755 15.02537614128402",
    "COMMENT": "Grouped by shell and plane from TLE"
  },
  {
    "OBJECT_NAME": "STARLINK-6367",
    "OBJECT_ID": "23099BA",
    "EPOCH": "2025-11-10T21:58:40.634976",
    "MEAN_MOTION": 15.02553865,
    "ECCENTRICITY": 0.0002,
    "INCLINATION": 42.9995,
    "RA_OF_ASC_NODE": 161.0008,
    "ARG_OF_PERICENTER": 252.4737,
    "MEAN_ANOMALY": 107.5887,
    "EPHEMERIS_TYPE": 0,
    "CLASSIFICATION_TYPE": "U",
    "NORAD_CAT_ID": 57376,
    "ELEMENT_SET_NO": 999,
    "REV_AT_EPOCH": 12840,
    "BSTAR": 0.0008103300000000001,
    "MEAN_MOTION_DOT": 0.00010765,
    "MEAN_MOTION_DDOT": 0.0,
    "TLE_LINE1": "1 57376U 23099BA  25314.91574809  .00010765  00000+0  81033-3 0  9995",
    "TLE_LINE2": "2 57376  42.9995 161.0008 0002000 252.4737 107.5887 15.02553865128407",
    "COMMENT": "Grouped by shell and plane from TLE"
  },
  {
    "OBJECT_NAME": "STARLINK-6361",
    "OBJECT_ID": "23099BD",
    "EPOCH": "2025-11-10T23:35:58.784064",
    "MEAN_MOTION": 15.02567219,
    "ECCENTRICITY": 0.0002196,
    "INCLINATION": 43.0041,
    "RA_OF_ASC_NODE": 160.6508,
    "ARG_OF_PERICENTER": 262.2053,
    "MEAN_ANOMALY": 97.854,
    "EPHEMERIS_TYPE": 0,
    "CLASSIFICATION_TYPE": "U",
    "NORAD_CAT_ID": 57379,
    "ELEMENT_SET_NO": 999,
    "REV_AT_EPOCH": 12841,
    "BSTAR": 0.00028623,
    "MEAN_MOTION_DOT": 3.668e-05,
    "MEAN_MOTION_DDOT": 0.0,
    "TLE_LINE1": "1 57379U 23099BD  25314.98331926  .00003668  00000+0  28623-3 0  9996",
    "TLE_LINE2": "2 57379  43.0041 160.6508 0002196 262.2053  97.8540 15.02567219128416",
    "COMMENT": "Grouped by shell and plane from TLE"
  },
  {
    "OBJECT_NAME": "STARLINK-30207",
    "OBJECT_ID": "23102D",
    "EPOCH": "2025-11-10T23:42:25.041312",
    "MEAN_MOTION": 15.02572917,
    "ECCENTRICITY": 0.0001104,
    "INCLINATION": 43.0026,
    "RA_OF_ASC_NODE": 160.6813,
    "ARG_OF_PERICENTER": 264.5186,
    "MEAN_ANOMALY": 95.5531,
    "EPHEMERIS_TYPE": 0,
    "CLASSIFICATION_TYPE": "U",
    "NORAD_CAT_ID": 57407,
    "ELEMENT_SET_NO": 999,
    "REV_AT_EPOCH": 12854,
    "BSTAR": 0.0,
    "MEAN_MOTION_DOT": -7.576e-05,
    "MEAN_MOTION_DDOT": 0.0,
    "TLE_LINE1": "1 57407U 23102D   25314.98778983 -.00007576  00000+0 -54584-3 0  9990",
    "TLE_LINE2": "2 57407  43.0026 160.6813 0001104 264.5186  95.5531 15.02572917128540",
    "COMMENT": "Grouped by shell and plane from TLE"
  },
  {
    "OBJECT_NAME": "STARLINK-30374",
    "OBJECT_ID": "23138B",
    "EPOCH": "2025-11-10T23:18:38.840832",
    "MEAN_MOTION": 15.02537499,
    "ECCENTRICITY": 8.89e-05,
    "INCLINATION": 43.0015,
    "RA_OF_ASC_NODE": 161.501,
    "ARG_OF_PERICENTER": 261.3915,
    "MEAN_ANOMALY": 98.6826,
    "EPHEMERIS_TYPE": 0,
    "CLASSIFICATION_TYPE": "U",
    "NORAD_CAT_ID": 57809,
    "ELEMENT_SET_NO": 999,
    "REV_AT_EPOCH": 12085,
    "BSTAR": 7.0352e-05,
    "MEAN_MOTION_DOT": 7.47e-06,
    "MEAN_MOTION_DDOT": 0.0,
    "TLE_LINE1": "1 57809U 23138B   25314.97128288  .00000747  00000+0  70352-4 0  9994",
    "TLE_LINE2": "2 57809  43.0015 161.5010 0000889 261.3915  98.6826 15.02537499120850",
    "COMMENT": "Grouped by shell and plane from TLE"
  },
  {
    "OBJECT_NAME": "STARLINK-30394",
    "OBJECT_ID": "23138C",
    "EPOCH": "2025-11-10T23:13:50.797920",
    "MEAN_MOTION": 15.02550689,
    "ECCENTRICITY": 0.0001353,
    "INCLINATION": 43.001,
    "RA_OF_ASC_NODE": 161.4781,
    "ARG_OF_PERICENTER": 272.5722,
    "MEAN_ANOMALY": 87.4966,
    "EPHEMERIS_TYPE": 0,
    "CLASSIFICATION_TYPE": "U",
    "NORAD_CAT_ID": 57810,
    "ELEMENT_SET_NO": 999,
    "REV_AT_EPOCH": 12075,
    "BSTAR": 0.00059053,
    "MEAN_MOTION_DOT": 7.785e-05,
    "MEAN_MOTION_DDOT": 0.0,
    "TLE_LINE1": "1 57810U 23138C   25314.96794905  .00007785  00000+0  59053-3 0  9993",
    "TLE_LINE2": "2 57810  43.0010 161.4781 0001353 272.5722  87.4966 15.02550689120754",
    "COMMENT": "Grouped by shell and plane from TLE"
  },
  {
    "OBJECT_NAME": "STARLINK-30379",
    "OBJECT_ID": "23138D",
    "EPOCH": "2025-11-10T23:09:03.269088",
    "MEAN_MOTION": 15.02540204,
    "ECCENTRICITY": 9.48e-05,
    "INCLINATION": 43.0022,
    "RA_OF_ASC_NODE": 161.4528,
    "ARG_OF_PERICENTER": 247.4965,
    "MEAN_ANOMALY": 112.5777,
    "EPHEMERIS_TYPE": 0,
    "CLASSIFICATION_TYPE": "U",
    "NORAD_CAT_ID": 57811,
    "ELEMENT_SET_NO": 999,
    "REV_AT_EPOCH": 12085,
    "BSTAR": 6.2784e-05,
    "MEAN_MOTION_DOT": 6.45e-06,
    "MEAN_MOTION_DDOT": 0.0,
    "TLE_LINE1": "1 57811U 23138D   25314.96462117  .00000645  00000+0  62784-4 0  9995",
    "TLE_LINE2": "2 57811  43.0022 161.4528 0000948 247.4965 112.5777 15.02540204120859",
    "COMMENT": "Grouped by shell and plane from TLE"
  },
  {
    "OBJECT_NAME": "STARLINK-30395",
    "OBJECT_ID": "23138E",
    "EPOCH": "2025-11-10T23:04:15.867264",
    "MEAN_MOTION": 15.02528766,
    "ECCENTRICITY": 0.0001068,
    "INCLINATION": 43.0033,
    "RA_OF_ASC_NODE": 161.4276,
    "ARG_OF_PERICENTER": 283.5325,
    "MEAN_ANOMALY": 76.5399,
    "EPHEMERIS_TYPE": 0,
    "CLASSIFICATION_TYPE": "U",
    "NORAD_CAT_ID": 57812,
    "ELEMENT_SET_NO": 999,
    "REV_AT_EPOCH": 12085,
    "BSTAR": 0.0,
    "MEAN_MOTION_DOT": -1.306e-05,
    "MEAN_MOTION_DDOT": 0.0,
    "TLE_LINE1": "1 57812U 23138E   25314.96129476 -.00001306  00000+0 -81651-4 0  9995",
    "TLE_LINE2": "2 57812  43.0033 161.4276 0001068 283.5325  76.5399 15.02528766120855",
    "COMMENT": "Grouped by shell and plane from TLE"
  },
  {
    "OBJECT_NAME": "STARLINK-30390",
    "OBJECT_ID": "23138M",
    "EPOCH": "2025-11-11T00:11:13.323840",
    "MEAN_MOTION": 15.02522113,
    "ECCENTRICITY": 0.0001817,
    "INCLINATION": 43.0028,
    "RA_OF_ASC_NODE": 160.9166,
    "ARG_OF_PERICENTER": 284.877,
    "MEAN_ANOMALY": 75.1871,
    "EPHEMERIS_TYPE": 0,
    "CLASSIFICATION_TYPE": "U",
    "NORAD_CAT_ID": 57819,
    "ELEMENT_SET_NO": 999,
    "REV_AT_EPOCH": 12080,
    "BSTAR": 0.00014478,
    "MEAN_MOTION_DOT": 1.752e-05,
    "MEAN_MOTION_DDOT": 0.0,
    "TLE_LINE1": "1 57819U 23138M   25315.00779310  .00001752  00000+0  14478-3 0  9991",
    "TLE_LINE2": "2 57819  43.0028 160.9166 0001817 284.8770  75.1871 15.02522113120803",
    "COMMENT": "Grouped by shell and plane from TLE"
  }
]